BEIDOU 3 (C01)          
1 36287U 10001A   21143.89580747 -.00000277  00000-0  00000-0 0  9994
2 36287   1.8353  45.1468 0004546  77.3053 222.1837  1.00269756 41602
BEIDOU 5 (C06)          
1 36828U 10036A   21143.97027052 -.00000008  00000-0  00000-0 0  9999
2 36828  54.1725 179.8202 0112994 235.3233 295.0455  1.00268621 39669
BEIDOU 6 (C04)          
1 37210U 10057A   21144.59277834 -.00000108  00000-0  00000+0 0  9992
2 37210   0.8031  44.7683 0002507 129.3450  81.6835  1.00272015 38737
BEIDOU 7 (C07)          
1 37256U 10068A   21143.93186894 -.00000239  00000-0  00000-0 0  9992
2 37256  50.9051 294.2890 0084378 215.1081 186.7439  1.00262511 38240
BEIDOU 8 (C08)          
1 37384U 11013A   21144.41287834 -.00000228  00000-0  00000+0 0  9992
2 37384  59.7460  58.1471 0052446 206.8235 244.1177  1.00260472 37122
BEIDOU 9 (C09)          
1 37763U 11038A   21144.07549450 -.00000006  00000-0  00000+0 0  9991
2 37763  54.4602 182.2629 0082993 226.3606 316.2369  1.00270263 36094
BEIDOU 10 (C10)         
1 37948U 11073A   21144.23281407 -.00000171  00000-0  00000+0 0  9991
2 37948  51.0103 293.9009 0071267 213.6147 272.3096  1.00259024 34854
BEIDOU 11 (C05)         
1 38091U 12008A   21143.91299530  .00000060  00000-0  00000-0 0  9997
2 38091   1.4992  67.0404 0008562 321.4654 240.6938  1.00276317 33921
BEIDOU 12 (C11)         
1 38250U 12018A   21144.11398016 -.00000072  00000-0  00000+0 0  9990
2 38250  56.7546   6.4154 0020446 250.2248 285.3206  1.86234438 61835
BEIDOU 13 (C12)         
1 38251U 12018B   21143.71564971 -.00000071  00000-0  00000-0 0  9991
2 38251  56.6768   5.7779 0011397 255.5241  57.3701  1.86234295 61829
BEIDOU 15 (C14)         
1 38775U 12050B   21143.75494435  .00000071  00000-0  00000-0 0  9998
2 38775  55.1977 124.8147 0016302 317.0533 219.5844  1.86232376 59204
BEIDOU 16 (C02)         
1 38953U 12059A   21143.88105022 -.00000171  00000-0  00000-0 0  9992
2 38953   1.9102  84.7067 0008664 288.6909 269.5529  1.00271451 31497
BEIDOU 17 (C31)         
1 40549U 15019A   21143.93409311 -.00000184  00000-0  00000-0 0  9993
2 40549  52.5315 317.2705 0037547 186.4235 170.9122  1.00271266 22523
BEIDOU 18 (C57)         
1 40748U 15037A   21144.21091149 -.00000074  00000-0  00000+0 0  9999
2 40748  55.9386   4.8638 0005316  23.4424 171.4068  1.86233446 39662
BEIDOU 19 (C58)         
1 40749U 15037B   21143.64611334 -.00000072  00000-0  00000-0 0  9999
2 40749  55.9431   4.8709 0005125 344.0407 328.3594  1.86232318 39646
BEIDOU 20 (C18)         
1 40938U 15053A   21144.17647385 -.00000169  00000-0  00000+0 0  9997
2 40938  52.1025 280.3377 0046146 190.8647 289.3380  1.00288166 20790
BEIDOU IGSO-6 (C13)     
1 41434U 16021A   21144.17812895 -.00000192  00000-0  00000+0 0  9991
2 41434  57.5295  56.8975 0038429 215.5792 130.5543  1.00274407 18924
BEIDOU-2 G7 (C03)       
1 41586U 16037A   21144.51082472 -.00000350  00000-0  00000+0 0  9990
2 41586   1.6504  66.4717 0009959  16.5426  93.7569  1.00269451 18230
BEIDOU-3 M1 (C19)       
1 43001U 17069A   21143.40239596  .00000076  00000-0  00000+0 0  9992
2 43001  55.3509 124.7749 0012447 290.5028 165.8717  1.86231811 24131
BEIDOU-3 M2 (C20)       
1 43002U 17069B   21144.11240538  .00000067  00000-0  00000+0 0  9990
2 43002  55.3514 124.7867 0010930 307.4068 308.5145  1.86231497 24137
BEIDOU-3 M3 (C27)       
1 43107U 18003A   21144.14866966 -.00000076  00000-0  00000+0 0  9998
2 43107  55.3825   5.9578 0005753  45.7932  40.3096  1.86232595 22905
BEIDOU-3 M4 (C28)       
1 43108U 18003B   21144.22361981 -.00000076  00000-0  00000+0 0  9995
2 43108  55.3741   5.9446 0002038 256.9933 284.5353  1.86232521 22904
BEIDOU-3 M5 (C21)       
1 43207U 18018A   21143.32616095  .00000077  00000-0  00000-0 0  9991
2 43207  55.3110 124.9052 0008171 322.8067  37.1264  1.86231678 22279
BEIDOU-3 M6 (C22)       
1 43208U 18018B   21143.39282492  .00000076  00000-0  00000-0 0  9998
2 43208  55.3129 124.9074 0010525 300.0575  59.8271  1.86231801 22279
BEIDOU-3 M7 (C29)       
1 43245U 18029A   21144.32836856 -.00000075  00000-0  00000+0 0  9993
2 43245  55.3147   3.7437 0001427  33.9623  82.8007  1.86232699 21441
BEIDOU-3 M8 (C30)       
1 43246U 18029B   21144.26669281 -.00000075  00000-0  10000-3 0  9998
2 43246  55.3132   3.7761 0004817   1.1143 120.4560  1.86232916 21430
BEIDOU IGSO-7 (C16)     
1 43539U 18057A   21143.93333537 -.00000052  00000-0  00000-0 0  9990
2 43539  55.0540 179.1760 0038504 222.5673 289.6891  1.00276690 10604
BEIDOU-3 M9 (C23)       
1 43581U 18062A   21143.92554256 -.00000004  00000-0  00000-0 0  9992
2 43581  54.4106 245.4392 0003239 266.3804 196.4932  1.86231879 19175
BEIDOU-3 M10 (C24)      
1 43582U 18062B   21144.04327397 -.00000003  00000-0  00000+0 0  9999
2 43582  54.4112 245.4235 0004189   1.5641 271.5707  1.86232078 19179
BEIDOU-3 M11 (C25)      
1 43602U 18067A   21143.58611469 -.00000004  00000-0  00000-0 0  9993
2 43602  54.4869 244.0207 0006514   0.5062   8.3793  1.86231704 18664
BEIDOU-3 M12 (C26)      
1 43603U 18067B   21144.25711676  .00000001  00000-0  00000+0 0  9995
2 43603  54.4825 243.9651 0003789 348.9203  20.3108  1.86231664 18697
BEIDOU-3 M13 (C32)      
1 43622U 18072A   21144.14373314  .00000065  00000-0  00000+0 0  9993
2 43622  55.2763 124.4467 0008936 287.9341  35.4143  1.86231790 18191
BEIDOU-3 M14 (C33)      
1 43623U 18072B   21144.13153449  .00000066  00000-0  00000+0 0  9999
2 43623  55.2763 124.4381 0007124 305.9840  99.4218  1.86231796 18201
BEIDOU-3 M15 (C34)      
1 43647U 18078A   21144.42920372 -.00000076  00000-0  10000-3 0  9997
2 43647  55.2079   3.9330 0007223   3.1839 137.0298  1.86232893 17718
BEIDOU-3 M16 (C35)      
1 43648U 18078B   21143.78228455 -.00000074  00000-0  10000-3 0  9997
2 43648  55.2040   3.9614 0005477  13.9808 321.0069  1.86232357 17712
BEIDOU-3 G1 (C59)       
1 43683U 18085A   21143.82394797 -.00000272  00000-0  00000-0 0  9998
2 43683   1.0931 230.2116 0002581   1.9638  86.1545  1.00270817  9507
BEIDOU-3 M17 (C36)      
1 43706U 18093A   21143.43647191 -.00000007  00000-0  00000-0 0  9995
2 43706  54.4916 245.3130 0009651 267.2067  92.7014  1.86231632 17070
BEIDOU-3 M18 (C37)      
1 43707U 18093B   21144.37528825 -.00000001  00000-0  00000+0 0  9995
2 43707  54.4923 245.2701 0007603 293.4383  66.7385  1.86232132 17088
BEIDOU-3 IGSO-1 (C38)   
1 44204U 19023A   21143.77689027 -.00000236  00000-0  00000-0 0  9998
2 44204  55.9835  57.1847 0018848 193.9261  19.9145  1.00302424  7803
BEIDOU-2 G8             
1 44231U 19027A   21144.27381961 -.00000244  00000-0  00000+0 0  9992
2 44231   0.2938 337.8166 0005515 214.6904 292.6252  1.00267255  7524
BEIDOU-3 IGSO-2 (C39)   
1 44337U 19035A   21144.42250811 -.00000034  00000-0  00000+0 0  9991
2 44337  55.0870 175.2115 0020204 192.2868 133.2206  1.00288502  7149
BEIDOU-3 M23 (C45)      
1 44542U 19061A   21144.44443603 -.00000000  00000-0  10000-3 0  9991
2 44542  54.7164 245.3435 0007413 327.5485  32.1082  1.86231273 11330
BEIDOU-3 M24 (C46)      
1 44543U 19061B   21143.61452292 -.00000006  00000-0  10000-3 0  9990
2 44543  54.7150 245.3406 0004719 314.2984 119.7614  1.86231667 11337
BEIDOU-3 IGSO-3         
1 44709U 19073A   21144.34031300 -.00000191  00000-0  00000+0 0  9991
2 44709  57.8792 300.4024 0018903 197.4127 333.5483  1.00282734  5909
BEIDOU-3 M21            
1 44793U 19078A   21142.38911369 -.00000071  00000-0  10000-3 0  9995
2 44793  55.0492   4.0720 0007364   7.0588 159.8481  1.86232524 10162
BEIDOU-3 M22            
1 44794U 19078B   21143.13411301 -.00000072  00000-0  00000-0 0  9998
2 44794  55.0355   4.0455 0005195   7.1541 210.1734  1.86232922 10171
BEIDOU-3 M19            
1 44864U 19090A   21144.15124914  .00000066  00000-0  00000+0 0  9995
2 44864  55.2110 124.6790 0018186 269.5427 104.3250  1.86231910  9780
BEIDOU-3 M20            
1 44865U 19090B   21143.84596723  .00000070  00000-0  00000-0 0  9998
2 44865  55.2125 124.7200 0017049 282.6554 336.4565  1.86231895  9754
BEIDOU-3 G2             
1 45344U 20017A   21144.56949772 -.00000140  00000-0  00000+0 0  9996
2 45344   2.4620 336.0010 0003494 110.1541  81.3309  1.00271591  4725
BEIDOU-3 G3             
1 45807U 20040A   21144.53581515 -.00000351  00000-0  00000+0 0  9994
2 45807   2.3395 298.5545 0005306   8.8805 238.3796  1.00271462  3531
